SOYUZ-MS 28             
1 66664U 25275A   25349.24971864  .00007132  00000+0  13467-3 0  9999
2 66664  51.6306 130.0501 0003193 251.9008 108.1633 15.49601155  1282
1998-067XS              
1 66906U 98067XS  25349.11381527  .00019441  00000+0  33919-3 0  9994
2 66906  51.6305 130.6430 0003358 213.8490 146.2285 15.50707714  1985
1998-067XT              
1 66907U 98067XT  25349.23838655  .00048484  00000+0  79982-3 0  9996
2 66907  51.6297 129.9756 0004099 241.5907 118.4670 15.51783963  2006
1998-067XU              
1 66908U 98067XU  25349.10912531  .00050243  00000+0  82605-3 0  9991
2 66908  51.6293 130.6123 0004218 240.3757 119.6813 15.51862591  1986
SILVERSAT               
1 66909U 98067XV  25348.91541272  .00047853  00000+0  78463-3 0  9990
2 66909  51.6297 131.5680 0004168 239.8452 120.2125 15.51959159  1956
1998-067XW              
1 66910U 98067XW  25349.10693659  .00047552  00000+0  77673-3 0  9999
2 66910  51.6293 130.5977 0004810 220.6145 139.4486 15.52065863  1989
1998-067XX              
1 66911U 98067XX  25349.10578578  .00056424  00000+0  90896-3 0  9992
2 66911  51.6294 130.5900 0004515 223.2403 136.8232 15.52379760  1978
1998-067XY              
1 66912U 98067XY  25349.11108310  .00037074  00000+0  62300-3 0  9996
2 66912  51.6300 130.6254 0004275 236.7640 123.2940 15.51387757  1975
