CCSDS_OMM_VERS = 2.0
CREATION_DATE  = 
ORIGINATOR     = 

OBJECT_NAME    = SOYUZ-MS 28
OBJECT_ID      = 2025-275A
CENTER_NAME    = EARTH
REF_FRAME      = TEME
TIME_SYSTEM    = UTC
MEAN_ELEMENT_THEORY = SGP/SGP4

EPOCH          = 2025-12-15T05:59:35.690496
MEAN_MOTION    = 15.49601155
ECCENTRICITY   = .00031934
INCLINATION    = 51.6306
RA_OF_ASC_NODE = 130.0501
ARG_OF_PERICENTER = 251.9008
MEAN_ANOMALY   = 108.1633

EPHEMERIS_TYPE = 0
CLASSIFICATION_TYPE = U
NORAD_CAT_ID   = 66664
ELEMENT_SET_NO = 999
REV_AT_EPOCH   = 128
BSTAR          = .13467464E-3
MEAN_MOTION_DOT = .7132E-4
MEAN_MOTION_DDOT = 0

CCSDS_OMM_VERS = 2.0
CREATION_DATE  = 
ORIGINATOR     = 

OBJECT_NAME    = 1998-067XS
OBJECT_ID      = 1998-067XS
CENTER_NAME    = EARTH
REF_FRAME      = TEME
TIME_SYSTEM    = UTC
MEAN_ELEMENT_THEORY = SGP/SGP4

EPOCH          = 2025-12-15T02:43:53.639328
MEAN_MOTION    = 15.50707714
ECCENTRICITY   = .00033588
INCLINATION    = 51.6305
RA_OF_ASC_NODE = 130.6430
ARG_OF_PERICENTER = 213.8490
MEAN_ANOMALY   = 146.2285

EPHEMERIS_TYPE = 0
CLASSIFICATION_TYPE = U
NORAD_CAT_ID   = 66906
ELEMENT_SET_NO = 999
REV_AT_EPOCH   = 198
BSTAR          = .33919377E-3
MEAN_MOTION_DOT = .19441E-3
MEAN_MOTION_DDOT = 0

CCSDS_OMM_VERS = 2.0
CREATION_DATE  = 
ORIGINATOR     = 

OBJECT_NAME    = 1998-067XT
OBJECT_ID      = 1998-067XT
CENTER_NAME    = EARTH
REF_FRAME      = TEME
TIME_SYSTEM    = UTC
MEAN_ELEMENT_THEORY = SGP/SGP4

EPOCH          = 2025-12-15T05:43:16.597920
MEAN_MOTION    = 15.51783963
ECCENTRICITY   = .00040993
INCLINATION    = 51.6297
RA_OF_ASC_NODE = 129.9756
ARG_OF_PERICENTER = 241.5907
MEAN_ANOMALY   = 118.4670

EPHEMERIS_TYPE = 0
CLASSIFICATION_TYPE = U
NORAD_CAT_ID   = 66907
ELEMENT_SET_NO = 999
REV_AT_EPOCH   = 200
BSTAR          = .79982279E-3
MEAN_MOTION_DOT = .48484E-3
MEAN_MOTION_DDOT = 0

CCSDS_OMM_VERS = 2.0
CREATION_DATE  = 
ORIGINATOR     = 

OBJECT_NAME    = 1998-067XU
OBJECT_ID      = 1998-067XU
CENTER_NAME    = EARTH
REF_FRAME      = TEME
TIME_SYSTEM    = UTC
MEAN_ELEMENT_THEORY = SGP/SGP4

EPOCH          = 2025-12-15T02:37:08.426784
MEAN_MOTION    = 15.51862591
ECCENTRICITY   = .00042185
INCLINATION    = 51.6293
RA_OF_ASC_NODE = 130.6123
ARG_OF_PERICENTER = 240.3757
MEAN_ANOMALY   = 119.6813

EPHEMERIS_TYPE = 0
CLASSIFICATION_TYPE = U
NORAD_CAT_ID   = 66908
ELEMENT_SET_NO = 999
REV_AT_EPOCH   = 198
BSTAR          = .82604654E-3
MEAN_MOTION_DOT = .50243E-3
MEAN_MOTION_DDOT = 0

CCSDS_OMM_VERS = 2.0
CREATION_DATE  = 
ORIGINATOR     = 

OBJECT_NAME    = SILVERSAT
OBJECT_ID      = 1998-067XV
CENTER_NAME    = EARTH
REF_FRAME      = TEME
TIME_SYSTEM    = UTC
MEAN_ELEMENT_THEORY = SGP/SGP4

EPOCH          = 2025-12-14T21:58:11.659008
MEAN_MOTION    = 15.51959159
ECCENTRICITY   = .00041685
INCLINATION    = 51.6297
RA_OF_ASC_NODE = 131.5680
ARG_OF_PERICENTER = 239.8452
MEAN_ANOMALY   = 120.2125

EPHEMERIS_TYPE = 0
CLASSIFICATION_TYPE = U
NORAD_CAT_ID   = 66909
ELEMENT_SET_NO = 999
REV_AT_EPOCH   = 195
BSTAR          = .78463431E-3
MEAN_MOTION_DOT = .47853E-3
MEAN_MOTION_DDOT = 0

CCSDS_OMM_VERS = 2.0
CREATION_DATE  = 
ORIGINATOR     = 

OBJECT_NAME    = 1998-067XW
OBJECT_ID      = 1998-067XW
CENTER_NAME    = EARTH
REF_FRAME      = TEME
TIME_SYSTEM    = UTC
MEAN_ELEMENT_THEORY = SGP/SGP4

EPOCH          = 2025-12-15T02:33:59.321376
MEAN_MOTION    = 15.52065863
ECCENTRICITY   = .00048103
INCLINATION    = 51.6293
RA_OF_ASC_NODE = 130.5977
ARG_OF_PERICENTER = 220.6145
MEAN_ANOMALY   = 139.4486

EPHEMERIS_TYPE = 0
CLASSIFICATION_TYPE = U
NORAD_CAT_ID   = 66910
ELEMENT_SET_NO = 999
REV_AT_EPOCH   = 198
BSTAR          = .77673091E-3
MEAN_MOTION_DOT = .47552E-3
MEAN_MOTION_DDOT = 0

CCSDS_OMM_VERS = 2.0
CREATION_DATE  = 
ORIGINATOR     = 

OBJECT_NAME    = 1998-067XX
OBJECT_ID      = 1998-067XX
CENTER_NAME    = EARTH
REF_FRAME      = TEME
TIME_SYSTEM    = UTC
MEAN_ELEMENT_THEORY = SGP/SGP4

EPOCH          = 2025-12-15T02:32:19.891392
MEAN_MOTION    = 15.52379760
ECCENTRICITY   = .00045157
INCLINATION    = 51.6294
RA_OF_ASC_NODE = 130.5900
ARG_OF_PERICENTER = 223.2403
MEAN_ANOMALY   = 136.8232

EPHEMERIS_TYPE = 0
CLASSIFICATION_TYPE = U
NORAD_CAT_ID   = 66911
ELEMENT_SET_NO = 999
REV_AT_EPOCH   = 197
BSTAR          = .90895834E-3
MEAN_MOTION_DOT = .56424E-3
MEAN_MOTION_DDOT = 0

CCSDS_OMM_VERS = 2.0
CREATION_DATE  = 
ORIGINATOR     = 

OBJECT_NAME    = 1998-067XY
OBJECT_ID      = 1998-067XY
CENTER_NAME    = EARTH
REF_FRAME      = TEME
TIME_SYSTEM    = UTC
MEAN_ELEMENT_THEORY = SGP/SGP4

EPOCH          = 2025-12-15T02:39:57.579840
MEAN_MOTION    = 15.51387757
ECCENTRICITY   = .00042755
INCLINATION    = 51.6300
RA_OF_ASC_NODE = 130.6254
ARG_OF_PERICENTER = 236.7640
MEAN_ANOMALY   = 123.2940

EPHEMERIS_TYPE = 0
CLASSIFICATION_TYPE = U
NORAD_CAT_ID   = 66912
ELEMENT_SET_NO = 999
REV_AT_EPOCH   = 197
BSTAR          = .62299922E-3
MEAN_MOTION_DOT = .37074E-3
MEAN_MOTION_DDOT = 0

